[{"OBJECT_NAME":"ICEYE-X7","OBJECT_ID":"2020-068L","EPOCH":"2026-03-09T22:52:28.702272","MEAN_MOTION":15.29152508,"ECCENTRICITY":0.00068409,"INCLINATION":97.7412,"RA_OF_ASC_NODE":31.2076,"ARG_OF_PERICENTER":332.3045,"MEAN_ANOMALY":27.7829,"EPHEMERIS_TYPE":0,"CLASSIFICATION_TYPE":"U","NORAD_CAT_ID":46496,"ELEMENT_SET_NO":999,"REV_AT_EPOCH":29961,"BSTAR":0.0005654802,"MEAN_MOTION_DOT":0.00015947,"MEAN_MOTION_DDOT":0},{"OBJECT_NAME":"STARLINK-32652","OBJECT_ID":"2024-231S","EPOCH":"2026-03-09T17:22:21.396000","MEAN_MOTION":15.30215305,"ECCENTRICITY":0.00010249,"INCLINATION":53.1588,"RA_OF_ASC_NODE":219.4672,"ARG_OF_PERICENTER":101.166,"MEAN_ANOMALY":258.9456,"EPHEMERIS_TYPE":0,"CLASSIFICATION_TYPE":"U","NORAD_CAT_ID":62234,"ELEMENT_SET_NO":999,"REV_AT_EPOCH":7176,"BSTAR":0.0010210428,"MEAN_MOTION_DOT":0.00030018,"MEAN_MOTION_DDOT":0}]
